[{"OBJECT_NAME":"REIMEI (INDEX)","OBJECT_ID":"2005-031B","EPOCH":"2026-03-09T21:15:47.083968","MEAN_MOTION":15.09838737,"ECCENTRICITY":0.00209792,"INCLINATION":97.9988,"RA_OF_ASC_NODE":188.389,"ARG_OF_PERICENTER":89.5619,"MEAN_ANOMALY":270.8013,"EPHEMERIS_TYPE":0,"CLASSIFICATION_TYPE":"U","NORAD_CAT_ID":28810,"ELEMENT_SET_NO":999,"REV_AT_EPOCH":11600,"BSTAR":0.00050498736,"MEAN_MOTION_DOT":8.144e-5,"MEAN_MOTION_DDOT":0},{"OBJECT_NAME":"ICEYE-X62","OBJECT_ID":"2025-276CT","EPOCH":"2026-03-09T22:00:01.999584","MEAN_MOTION":15.13749858,"ECCENTRICITY":0.00024067,"INCLINATION":97.4268,"RA_OF_ASC_NODE":144.1131,"ARG_OF_PERICENTER":24.3407,"MEAN_ANOMALY":42.0964,"EPHEMERIS_TYPE":0,"CLASSIFICATION_TYPE":"U","NORAD_CAT_ID":66755,"ELEMENT_SET_NO":999,"REV_AT_EPOCH":582,"BSTAR":-0.0014397534,"MEAN_MOTION_DOT":-0.00025905,"MEAN_MOTION_DDOT":0}]
